CYGNUS NG-23            
1 65616U 25208A   26014.88606923  .00006740  00000+0  12902-3 0  9999
2 65616  51.6333 338.3791 0007761  18.9639 341.1637 15.49293899   226
DRAGONFLY               
1 65729U 98067XH  26015.27351442  .00350944  56380-4  11780-2 0  9991
2 65729  51.6203 322.1329 0007969 114.7299 245.4537 15.89523578 18466
1998-067XK              
1 65731U 98067XK  26015.22515964  .00112984  00000+0  77472-3 0  9994
2 65731  51.6285 326.3818 0004773  83.9855 276.1687 15.73858825 18403
RSP-03                  
1 65732U 98067XL  26015.26457085  .00188656  00000+0  96274-3 0  9998
2 65732  51.6254 324.3652 0005824  95.4966 264.6699 15.80262482 18448
GHS-01                  
1 65733U 98067XM  26015.09722476  .00830321  35080-3  13065-2 0  9998
2 65733  51.6217 320.9413 0007866 131.9439 228.2244 16.03278353 18479
YOTSUBA-KULOVER         
1 65941U 98067XN  26014.98075437  .00055638  00000+0  56000-3 0  9991
2 65941  51.6288 332.2638 0004115 105.1676 254.9774 15.64859349 15054
BOTAN                   
1 65942U 98067XP  26014.94445475  .00105753  00000+0  79359-3 0  9997
2 65942  51.6265 330.5094 0004829 104.2748 255.8787 15.71768883 15075
E-KAGAKU-1              
1 65943U 98067XQ  26014.27817244  .00060017  00000+0  60563-3 0  9991
2 65943  51.6306 335.8283 0002683 102.0285 258.1011 15.64767844 14947
HRC MONOBLOCK CAMERA    
1 66052U 98067XR  26015.25373014  .00027946  00000+0  38972-3 0  9997
2 66052  51.6309 334.0876 0001148   4.8649 355.2354 15.56679188 14054
HTV-X1                  
1 66174U 25241A   26014.88606923  .00006740  00000+0  12902-3 0  9996
2 66174  51.6333 338.3791 0007761  18.9639 341.1637 15.49293899   518
SZ-21 MODULE            
1 66515U 25246C   26015.45765789  .00023845  00000+0  24315-3 0  9996
2 66515  41.4740 170.0495 0002153 177.3798 182.7054 15.64523877  9727
SHENZHOU-22             
1 66645U 25272A   26014.81534950  .00011697  00000+0  14132-3 0  9990
2 66645  41.4652 175.6948 0011406 285.7845  74.1736 15.60511354267646
