CCSDS_OMM_VERS = 2.0
CREATION_DATE  = 
ORIGINATOR     = 

OBJECT_NAME    = CYGNUS NG-23
OBJECT_ID      = 2025-208A
CENTER_NAME    = EARTH
REF_FRAME      = TEME
TIME_SYSTEM    = UTC
MEAN_ELEMENT_THEORY = SGP/SGP4

EPOCH          = 2026-01-14T21:15:56.381472
MEAN_MOTION    = 15.49293899
ECCENTRICITY   = .00077611
INCLINATION    = 51.6333
RA_OF_ASC_NODE = 338.3791
ARG_OF_PERICENTER = 18.9639
MEAN_ANOMALY   = 341.1637

EPHEMERIS_TYPE = 0
CLASSIFICATION_TYPE = U
NORAD_CAT_ID   = 65616
ELEMENT_SET_NO = 999
REV_AT_EPOCH   = 22
BSTAR          = .12902445E-3
MEAN_MOTION_DOT = .674E-4
MEAN_MOTION_DDOT = 0

CCSDS_OMM_VERS = 2.0
CREATION_DATE  = 
ORIGINATOR     = 

OBJECT_NAME    = DRAGONFLY
OBJECT_ID      = 1998-067XH
CENTER_NAME    = EARTH
REF_FRAME      = TEME
TIME_SYSTEM    = UTC
MEAN_ELEMENT_THEORY = SGP/SGP4

EPOCH          = 2026-01-15T06:33:51.645888
MEAN_MOTION    = 15.89523578
ECCENTRICITY   = .0007969
INCLINATION    = 51.6203
RA_OF_ASC_NODE = 322.1329
ARG_OF_PERICENTER = 114.7299
MEAN_ANOMALY   = 245.4537

EPHEMERIS_TYPE = 0
CLASSIFICATION_TYPE = U
NORAD_CAT_ID   = 65729
ELEMENT_SET_NO = 999
REV_AT_EPOCH   = 1846
BSTAR          = .1178E-2
MEAN_MOTION_DOT = .350944E-2
MEAN_MOTION_DDOT = .5638E-4

CCSDS_OMM_VERS = 2.0
CREATION_DATE  = 
ORIGINATOR     = 

OBJECT_NAME    = 1998-067XK
OBJECT_ID      = 1998-067XK
CENTER_NAME    = EARTH
REF_FRAME      = TEME
TIME_SYSTEM    = UTC
MEAN_ELEMENT_THEORY = SGP/SGP4

EPOCH          = 2026-01-15T05:24:13.792896
MEAN_MOTION    = 15.73858825
ECCENTRICITY   = .0004773
INCLINATION    = 51.6285
RA_OF_ASC_NODE = 326.3818
ARG_OF_PERICENTER = 83.9855
MEAN_ANOMALY   = 276.1687

EPHEMERIS_TYPE = 0
CLASSIFICATION_TYPE = U
NORAD_CAT_ID   = 65731
ELEMENT_SET_NO = 999
REV_AT_EPOCH   = 1840
BSTAR          = .77472E-3
MEAN_MOTION_DOT = .112984E-2
MEAN_MOTION_DDOT = 0

CCSDS_OMM_VERS = 2.0
CREATION_DATE  = 
ORIGINATOR     = 

OBJECT_NAME    = RSP-03
OBJECT_ID      = 1998-067XL
CENTER_NAME    = EARTH
REF_FRAME      = TEME
TIME_SYSTEM    = UTC
MEAN_ELEMENT_THEORY = SGP/SGP4

EPOCH          = 2026-01-15T06:20:58.921440
MEAN_MOTION    = 15.80262482
ECCENTRICITY   = .0005824
INCLINATION    = 51.6254
RA_OF_ASC_NODE = 324.3652
ARG_OF_PERICENTER = 95.4966
MEAN_ANOMALY   = 264.6699

EPHEMERIS_TYPE = 0
CLASSIFICATION_TYPE = U
NORAD_CAT_ID   = 65732
ELEMENT_SET_NO = 999
REV_AT_EPOCH   = 1844
BSTAR          = .96274E-3
MEAN_MOTION_DOT = .188656E-2
MEAN_MOTION_DDOT = 0

CCSDS_OMM_VERS = 2.0
CREATION_DATE  = 
ORIGINATOR     = 

OBJECT_NAME    = GHS-01
OBJECT_ID      = 1998-067XM
CENTER_NAME    = EARTH
REF_FRAME      = TEME
TIME_SYSTEM    = UTC
MEAN_ELEMENT_THEORY = SGP/SGP4

EPOCH          = 2026-01-15T02:20:00.219264
MEAN_MOTION    = 16.03278353
ECCENTRICITY   = .0007866
INCLINATION    = 51.6217
RA_OF_ASC_NODE = 320.9413
ARG_OF_PERICENTER = 131.9439
MEAN_ANOMALY   = 228.2244

EPHEMERIS_TYPE = 0
CLASSIFICATION_TYPE = U
NORAD_CAT_ID   = 65733
ELEMENT_SET_NO = 999
REV_AT_EPOCH   = 1847
BSTAR          = .13065E-2
MEAN_MOTION_DOT = .830321E-2
MEAN_MOTION_DDOT = .3508E-3

CCSDS_OMM_VERS = 2.0
CREATION_DATE  = 
ORIGINATOR     = 

OBJECT_NAME    = YOTSUBA-KULOVER
OBJECT_ID      = 1998-067XN
CENTER_NAME    = EARTH
REF_FRAME      = TEME
TIME_SYSTEM    = UTC
MEAN_ELEMENT_THEORY = SGP/SGP4

EPOCH          = 2026-01-14T23:32:17.177568
MEAN_MOTION    = 15.64859349
ECCENTRICITY   = .00041156
INCLINATION    = 51.6288
RA_OF_ASC_NODE = 332.2638
ARG_OF_PERICENTER = 105.1676
MEAN_ANOMALY   = 254.9774

EPHEMERIS_TYPE = 0
CLASSIFICATION_TYPE = U
NORAD_CAT_ID   = 65941
ELEMENT_SET_NO = 999
REV_AT_EPOCH   = 1505
BSTAR          = .55999589E-3
MEAN_MOTION_DOT = .55638E-3
MEAN_MOTION_DDOT = 0

CCSDS_OMM_VERS = 2.0
CREATION_DATE  = 
ORIGINATOR     = 

OBJECT_NAME    = BOTAN
OBJECT_ID      = 1998-067XP
CENTER_NAME    = EARTH
REF_FRAME      = TEME
TIME_SYSTEM    = UTC
MEAN_ELEMENT_THEORY = SGP/SGP4

EPOCH          = 2026-01-14T22:40:00.890400
MEAN_MOTION    = 15.71768883
ECCENTRICITY   = .00048295
INCLINATION    = 51.6265
RA_OF_ASC_NODE = 330.5094
ARG_OF_PERICENTER = 104.2748
MEAN_ANOMALY   = 255.8787

EPHEMERIS_TYPE = 0
CLASSIFICATION_TYPE = U
NORAD_CAT_ID   = 65942
ELEMENT_SET_NO = 999
REV_AT_EPOCH   = 1507
BSTAR          = .79358937E-3
MEAN_MOTION_DOT = .105753E-2
MEAN_MOTION_DDOT = 0

CCSDS_OMM_VERS = 2.0
CREATION_DATE  = 
ORIGINATOR     = 

OBJECT_NAME    = E-KAGAKU-1
OBJECT_ID      = 1998-067XQ
CENTER_NAME    = EARTH
REF_FRAME      = TEME
TIME_SYSTEM    = UTC
MEAN_ELEMENT_THEORY = SGP/SGP4

EPOCH          = 2026-01-14T06:40:34.098816
MEAN_MOTION    = 15.64767844
ECCENTRICITY   = .00026838
INCLINATION    = 51.6306
RA_OF_ASC_NODE = 335.8283
ARG_OF_PERICENTER = 102.0285
MEAN_ANOMALY   = 258.1011

EPHEMERIS_TYPE = 0
CLASSIFICATION_TYPE = U
NORAD_CAT_ID   = 65943
ELEMENT_SET_NO = 999
REV_AT_EPOCH   = 1494
BSTAR          = .60563019E-3
MEAN_MOTION_DOT = .60017E-3
MEAN_MOTION_DDOT = 0

CCSDS_OMM_VERS = 2.0
CREATION_DATE  = 
ORIGINATOR     = 

OBJECT_NAME    = HRC MONOBLOCK CAMERA
OBJECT_ID      = 1998-067XR
CENTER_NAME    = EARTH
REF_FRAME      = TEME
TIME_SYSTEM    = UTC
MEAN_ELEMENT_THEORY = SGP/SGP4

EPOCH          = 2026-01-15T06:05:22.284096
MEAN_MOTION    = 15.56679188
ECCENTRICITY   = .0001148
INCLINATION    = 51.6309
RA_OF_ASC_NODE = 334.0876
ARG_OF_PERICENTER = 4.8649
MEAN_ANOMALY   = 355.2354

EPHEMERIS_TYPE = 0
CLASSIFICATION_TYPE = U
NORAD_CAT_ID   = 66052
ELEMENT_SET_NO = 999
REV_AT_EPOCH   = 1405
BSTAR          = .38972E-3
MEAN_MOTION_DOT = .27946E-3
MEAN_MOTION_DDOT = 0

CCSDS_OMM_VERS = 2.0
CREATION_DATE  = 
ORIGINATOR     = 

OBJECT_NAME    = HTV-X1
OBJECT_ID      = 2025-241A
CENTER_NAME    = EARTH
REF_FRAME      = TEME
TIME_SYSTEM    = UTC
MEAN_ELEMENT_THEORY = SGP/SGP4

EPOCH          = 2026-01-14T21:15:56.381472
MEAN_MOTION    = 15.49293899
ECCENTRICITY   = .00077611
INCLINATION    = 51.6333
RA_OF_ASC_NODE = 338.3791
ARG_OF_PERICENTER = 18.9639
MEAN_ANOMALY   = 341.1637

EPHEMERIS_TYPE = 0
CLASSIFICATION_TYPE = U
NORAD_CAT_ID   = 66174
ELEMENT_SET_NO = 999
REV_AT_EPOCH   = 51
BSTAR          = .12902445E-3
MEAN_MOTION_DOT = .674E-4
MEAN_MOTION_DDOT = 0

CCSDS_OMM_VERS = 2.0
CREATION_DATE  = 
ORIGINATOR     = 

OBJECT_NAME    = SZ-21 MODULE
OBJECT_ID      = 2025-246C
CENTER_NAME    = EARTH
REF_FRAME      = TEME
TIME_SYSTEM    = UTC
MEAN_ELEMENT_THEORY = SGP/SGP4

EPOCH          = 2026-01-15T10:59:01.641696
MEAN_MOTION    = 15.64523877
ECCENTRICITY   = .0002153
INCLINATION    = 41.4740
RA_OF_ASC_NODE = 170.0495
ARG_OF_PERICENTER = 177.3798
MEAN_ANOMALY   = 182.7054

EPHEMERIS_TYPE = 0
CLASSIFICATION_TYPE = U
NORAD_CAT_ID   = 66515
ELEMENT_SET_NO = 999
REV_AT_EPOCH   = 972
BSTAR          = .24315E-3
MEAN_MOTION_DOT = .23845E-3
MEAN_MOTION_DDOT = 0

CCSDS_OMM_VERS = 2.0
CREATION_DATE  = 
ORIGINATOR     = 

OBJECT_NAME    = SHENZHOU-22
OBJECT_ID      = 2025-272A
CENTER_NAME    = EARTH
REF_FRAME      = TEME
TIME_SYSTEM    = UTC
MEAN_ELEMENT_THEORY = SGP/SGP4

EPOCH          = 2026-01-14T19:34:06.196800
MEAN_MOTION    = 15.60511354
ECCENTRICITY   = .00114061
INCLINATION    = 41.4652
RA_OF_ASC_NODE = 175.6948
ARG_OF_PERICENTER = 285.7845
MEAN_ANOMALY   = 74.1736

EPHEMERIS_TYPE = 0
CLASSIFICATION_TYPE = U
NORAD_CAT_ID   = 66645
ELEMENT_SET_NO = 999
REV_AT_EPOCH   = 26764
BSTAR          = .1413228E-3
MEAN_MOTION_DOT = .11697E-3
MEAN_MOTION_DDOT = 0

